IRIDIUM 33              
1 24946U 97051C   24197.73672501  .00000545  00000+0  18649-3 0  9995
2 24946  86.3867 284.1843 0010100  96.0369 264.1978 14.34417851404508
IRIDIUM 33 DEB          
1 33773U 97051L   24198.22640785  .00001707  00000+0  52487-3 0  9996
2 33773  86.4007 278.1505 0012960  61.6437 298.6068 14.41009418809360
IRIDIUM 33 DEB          
1 33775U 97051N   24198.18152233  .00002366  00000+0  76470-3 0  9999
2 33775  86.3638 268.6265 0016683  69.6722 350.3513 14.38662728807442
IRIDIUM 33 DEB          
1 33776U 97051P   24197.77770351  .00001370  00000+0  46081-3 0  9990
2 33776  86.4053 296.6410 0016757  88.1948  27.2404 14.36367007806848
IRIDIUM 33 DEB          
1 33777U 97051Q   24197.92211904  .00003296  00000+0  87422-3 0  9995
2 33777  86.3802 257.8609 0010165 184.4040 175.7076 14.48432180810600
IRIDIUM 33 DEB          
1 33850U 97051T   24197.66738198  .00002645  00000+0  84734-3 0  9997
2 33850  86.3410 251.0736 0014333  75.1737  47.8954 14.39167910807352
IRIDIUM 33 DEB          
1 33853U 97051W   24197.81185588  .00004168  00000+0  25088-2 0  9994
2 33853  86.0008 214.8219 0223598  13.4095 161.3902 13.94915735781548
IRIDIUM 33 DEB          
1 33859U 97051AC  24197.16550420  .00022403  00000+0  43659-2 0  9995
2 33859  86.3358 240.3497 0037177   9.2103 350.9781 14.62470195808741
IRIDIUM 33 DEB          
1 33860U 97051AD  24197.89911667  .00006834  00000+0  15856-2 0  9999
2 33860  86.3872 252.8970 0008302 278.5310 256.5828 14.54888100812004
IRIDIUM 33 DEB          
1 33862U 97051AF  24198.21764905  .00003266  00000+0  70735-3 0  9993
2 33862  86.4103 262.1912 0059868  31.0450  25.9554 14.56807256812980
IRIDIUM 33 DEB          
1 33864U 97051AH  24197.94043434  .00021248  00000+0  32653-2 0  9997
2 33864  86.2734 161.1291 0012787 119.0014 298.4217 14.73388190814165
IRIDIUM 33 DEB          
1 33866U 97051AK  24197.78658856  .00002998  00000+0  13025-2 0  9994
2 33866  86.3028 310.0279 0111302   9.6091 142.0581 14.20577380794862
IRIDIUM 33 DEB          
1 33867U 97051AL  24198.10874148  .00022225  00000+0  31185-2 0  9998
2 33867  86.4154 230.5569 0022076  87.3116 273.0631 14.77178174817904
IRIDIUM 33 DEB          
1 33870U 97051AP  24197.73750917  .00004242  00000+0  13168-2 0  9997
2 33870  86.3757 278.0757 0024056  91.2591  35.4354 14.40734766807066
IRIDIUM 33 DEB          
1 33873U 97051AS  24198.01532132  .00249008  00000+0  87614-2 0  9997
2 33873  86.3433 195.5982 0008465 119.9071 240.3018 15.28255908818115
IRIDIUM 33 DEB          
1 33874U 97051AT  24197.63278980  .00020289  00000+0  44473-2 0  9997
2 33874  86.2803 241.5662 0033357 265.9564 216.1704 14.57200232803837
IRIDIUM 33 DEB          
1 33881U 97051BA  24197.82510686  .00007987  00000+0  24356-2 0  9996
2 33881  86.3896 327.6653 0063377  86.0287  65.2412 14.40689924800425
IRIDIUM 33 DEB          
1 33884U 97051BD  24197.59274316  .00009150  00000+0  18865-2 0  9992
2 33884  86.3772 239.5669 0008949 297.2934 189.1723 14.60354381812802
IRIDIUM 33 DEB          
1 33886U 97051BF  24197.78510177  .00001044  00000+0  36050-3 0  9994
2 33886  86.3829 283.6770 0016100 126.2678 353.5232 14.34845714806647
IRIDIUM 33 DEB          
1 33887U 97051BG  24198.09073554  .00000648  00000+0  21522-3 0  9990
2 33887  86.3039 224.8655 0008509 117.3903 264.6015 14.36223140807698
IRIDIUM 33 DEB          
1 33888U 97051BH  24197.83394041  .00086242  00000+0  69548-2 0  9992
2 33888  86.3087 227.2382 0008766 316.9918  43.0628 14.99448379809181
IRIDIUM 33 DEB          
1 33952U 97051BM  24197.95036662  .00395824  00000+0  11002-1 0  9999
2 33952  86.3238 188.3100 0014084 144.9789 215.2392 15.35185831817565
IRIDIUM 33 DEB          
1 33953U 97051BN  24197.71616446  .00006749  00000+0  18508-2 0  9992
2 33953  86.3890 275.7544 0020451  28.0438  93.9716 14.46868843808317
IRIDIUM 33 DEB          
1 33959U 97051BU  24198.23616614  .00019894  00000+0  36276-2 0  9990
2 33959  86.3597 282.0011 0056144 176.5635 183.5975 14.64881597804683
IRIDIUM 33 DEB          
1 33960U 97051BV  24197.44654263  .00014945  00000+0  30500-2 0  9992
2 33960  86.2715 167.6610 0005897  81.1598  48.0000 14.60837814812768
IRIDIUM 33 DEB          
1 33965U 97051CA  24197.56418667  .00040987  00000+0  49627-2 0  9991
2 33965  86.3558 219.6711 0011510  79.5194 280.7326 14.83413536814462
IRIDIUM 33 DEB          
1 33966U 97051CB  24198.21716701  .00003087  00000+0  87269-3 0  9990
2 33966  86.3922 266.0513 0010208 119.2357 294.9480 14.45354221810232
IRIDIUM 33 DEB          
1 34071U 97051CE  24197.86389545  .00002890  00000+0  82837-3 0  9997
2 34071  86.3455 240.7457 0008690  43.4616 316.7269 14.44679850808866
IRIDIUM 33 DEB          
1 34077U 97051CL  24197.70959889  .00008438  00000+0  21179-2 0  9995
2 34077  86.3902 275.9199 0010473 333.2458 145.9759 14.51202608808247
IRIDIUM 33 DEB          
1 34079U 97051CN  24197.86990885  .00010443  00000+0  20581-2 0  9990
2 34079  86.3823 239.1640 0005638 325.0161 210.0042 14.62425926813912
IRIDIUM 33 DEB          
1 34086U 97051CV  24197.61716656  .00029233  00000+0  46904-2 0  9997
2 34086  86.3724 262.5092 0009371 343.2308 173.7134 14.71500408 16386
IRIDIUM 33 DEB          
1 34088U 97051CX  24197.68339558  .00014091  00000+0  28306-2 0  9990
2 34088  86.3940 261.5428 0008700 211.1366 270.5128 14.61547192811418
IRIDIUM 33 DEB          
1 34091U 97051DA  24198.22347577  .00015940  00000+0  42152-2 0  9994
2 34091  86.3613 295.4854 0059696 272.8412  86.5960 14.47684990803539
IRIDIUM 33 DEB          
1 34097U 97051DG  24197.84583827  .00003003  00000+0  11734-2 0  9996
2 34097  86.2032 227.3839 0087580 228.1407 131.2288 14.27218036797521
IRIDIUM 33 DEB          
1 34102U 97051DM  24197.86919744  .00052810  00000+0  10594-1 0  9998
2 34102  86.3640 331.2195 0067911 122.1577 357.2108 14.59961067799067
IRIDIUM 33 DEB          
1 34106U 97051DR  24198.06907392  .00024652  00000+0  35040-2 0  9998
2 34106  86.3541 212.0937 0006360 223.0217 190.8429 14.76774190814988
IRIDIUM 33 DEB          
1 34107U 97051DS  24197.80391554  .00017771  00000+0  19810-2 0  9998
2 34107  86.3752 219.7071 0003890 257.2660 278.0908 14.86960953815709
IRIDIUM 33 DEB          
1 34145U 97051DY  24198.03870471  .00006152  00000+0  20878-2 0  9993
2 34145  86.2170 200.5489 0058207 345.7625  14.1928 14.35600625802428
IRIDIUM 33 DEB          
1 34146U 97051DZ  24197.84104728  .00003827  00000+0  11411-2 0  9996
2 34146  86.2861 216.1015 0034748 131.4246 281.8356 14.42497506806643
IRIDIUM 33 DEB          
1 34159U 97051EN  24198.16328035  .00001893  00000+0  64345-3 0  9991
2 34159  86.3501 267.1171 0030266 169.6798 190.5027 14.35886684805667
IRIDIUM 33 DEB          
1 34350U 97051ES  24197.86849647  .00001685  00000+0  49913-3 0  9990
2 34350  86.3280 225.6634 0023578  50.3428 125.1786 14.42690807808613
IRIDIUM 33 DEB          
1 34358U 97051FA  24198.23972830  .00114583  00000+0  96507-2 0  9993
2 34358  86.3098 191.3998 0022649  79.1340 293.5789 14.97452312814022
IRIDIUM 33 DEB          
1 34366U 97051FJ  24197.94704152  .00005971  00000+0  16918-2 0  9997
2 34366  86.3711 271.6957 0024030  67.5702 109.0328 14.45238920807201
IRIDIUM 33 DEB          
1 34375U 97051FT  24197.98433493  .00001066  00000+0  50517-3 0  9993
2 34375  86.4300  30.0293 0103895 322.0067 163.4681 14.15966572795194
IRIDIUM 33 DEB          
1 34376U 97051FU  24198.11311494  .00008075  00000+0  21431-2 0  9995
2 34376  86.3020 235.2584 0036021 111.8271 248.6771 14.48181989806794
IRIDIUM 33 DEB          
1 34486U 97051GB  24197.90647279  .00012399  00000+0  21887-2 0  9995
2 34486  86.4033 244.0598 0018434 131.0971  43.9618 14.67269099814338
IRIDIUM 33 DEB          
1 34487U 97051GC  24197.85548741  .00000963  00000+0  28754-3 0  9999
2 34487  86.3426 233.6828 0032835  35.9614 136.6341 14.41687065808257
IRIDIUM 33 DEB          
1 34488U 97051GD  24197.70194780  .00022369  00000+0  33678-2 0  9998
2 34488  86.3427 187.8947 0021467  66.6470 293.7003 14.74167681815353
IRIDIUM 33 DEB          
1 34492U 97051GH  24197.90676045  .00027219  00000+0  12515-1 0  9999
2 34492  86.4915 179.1755 0258041  76.7814 314.1152 14.04951058777718
IRIDIUM 33 DEB          
1 34497U 97051GN  24197.18955448  .00003198  00000+0  13357-2 0  9997
2 34497  86.2778 271.9650 0085100 194.4188 195.0333 14.23953664795363
IRIDIUM 33 DEB          
1 34503U 97051GU  24197.84504941  .00048331  00000+0  49630-2 0  9997
2 34503  86.3067 153.5934 0012335 170.8108 189.3346 14.90103239817536
IRIDIUM 33 DEB          
1 34508U 97051GZ  24197.79733522  .00005417  00000+0  19654-2 0  9996
2 34508  86.3749 319.7652 0072336  57.6183 303.1984 14.31736255799216
IRIDIUM 33 DEB          
1 34511U 97051HC  24197.61092507  .00096601  00000+0  84756-2 0  9992
2 34511  86.3673 246.1663 0023050 139.4715 343.2408 14.95948012811284
IRIDIUM 33 DEB          
1 34521U 97051HN  24197.87718479  .00005065  00000+0  12306-2 0  9990
2 34521  86.3818 255.3740 0006231 175.7440 184.3820 14.52697607809669
IRIDIUM 33 DEB          
1 34524U 97051HR  24198.06932559  .00256038  00000+0  11099-1 0  9997
2 34524  86.3196 208.2142 0023147 126.0597 234.2796 15.21017180812751
IRIDIUM 33 DEB          
1 34525U 97051HS  24198.21732523  .00001848  00000+0  57904-3 0  9998
2 34525  86.3720 265.9146 0004143  19.2169  40.6330 14.40171327807281
IRIDIUM 33 DEB          
1 34529U 97051HW  24198.19038664  .00001005  00000+0  31630-3 0  9997
2 34529  86.3629 254.4494 0008176  96.0364 264.1767 14.39480113807935
IRIDIUM 33 DEB          
1 34538U 97051JF  24197.84483078  .00003488  00000+0  11615-2 0  9998
2 34538  86.2756 230.0979 0038110 211.3483 324.3048 14.36979095803440
IRIDIUM 33 DEB          
1 34540U 97051JH  24198.23476380  .00009206  00000+0  18399-2 0  9993
2 34540  86.3224 180.1437 0024606 140.7284 232.4901 14.61599875815067
IRIDIUM 33 DEB          
1 34643U 97051JU  24198.15713536  .03225739  00000+0  18905-1 0  9991
2 34643  86.3281 225.1160 0014539 214.3781 145.6552 15.74388964811299
